0 DMSP 5D-2 F11 DEB
1 28335U 91082AY  13282.78889754  .00001637  00000-0  76507-3 0  9594
2 28335 098.7902 269.5433 0015966 130.6631 229.5942 14.21655599487893
0 DMSP 5D-2 F11 DEB
1 28335U 91082AY  13285.81522926  .00001770  00000-0  82534-3 0  9614
2 28335 098.7913 272.5578 0016167 123.2686 237.0076 14.21668242488321
0 DMSP 5D-2 F11 DEB
1 28335U 91082AY  13287.78585155  .00001872  00000-0  87168-3 0  9627
2 28335 098.7914 274.5163 0015774 116.9452 243.3446 14.21676811488600
0 DMSP 5D-2 F11 DEB
1 28335U 91082AY  13289.19342552  .00001944  00000-0  90431-3 0  9634
2 28335 098.7915 275.9161 0015198 112.3796 247.8973 14.21683520488806
0 DMSP 5D-2 F11 DEB
1 28335U 91082AY  13291.79743219  .00002269  00000-0  10512-2 0  9641
2 28335 098.7940 278.5167 0016571 106.1374 254.2083 14.21698549489170
0 DMSP 5D-2 F11 DEB
1 28335U 91082AY  13294.19026762  .00002313  00000-0  10712-2 0  9658
2 28335 098.7920 280.8995 0016405 097.8389 262.4756 14.21710550489514
